IXPE                    
1 49954U 21121A   24169.91667824  .00006263  00000+0  44551-3 0  9991
2 49954   0.2309  27.6080 0009210 291.0945  93.1866 14.98235932  5804
